{"type":"FeatureCollection","crs":{"type":"name","properties":{"name":"EPSG:4326"}},"features":[{"type":"Feature","geometry":{"type":"Polygon","coordinates":[[[-116.134015353946,43.556842367474],[-116.134018103993,43.5565037598368],[-116.133810014974,43.5564108206447],[-116.133585055523,43.5563103447279],[-116.133419035535,43.5562361924886],[-116.133245350355,43.5562042854353],[-116.132927891233,43.5561459644989],[-116.132671642828,43.5560988888892],[-116.132415396049,43.5560518117993],[-116.132159148429,43.5560047341373],[-116.131902901209,43.5559576567991],[-116.131646654379,43.5559105779847],[-116.131435930822,43.5558718630328],[-116.131179539764,43.5558247566529],[-116.130886546321,43.5557709247594],[-116.130598691909,43.5557051991591],[-116.130111283317,43.5555939073992],[-116.129742903549,43.5555097920967],[-116.129135903585,43.5553717271838],[-116.129139935973,43.5547120335861],[-116.129453157911,43.5548168673696],[-116.129612508204,43.554823035885],[-116.129637366082,43.5548406429283],[-116.129845526941,43.5549880774814],[-116.130096054806,43.5551073434097],[-116.13036297525,43.5551710106281],[-116.130644175038,43.5551760909986],[-116.130927050624,43.5552525236839],[-116.131289524394,43.5554149827351],[-116.131497454507,43.5554403456021],[-116.13183924676,43.5554712593249],[-116.132057887321,43.5556064954958],[-116.132439986638,43.5557048757796],[-116.132804526151,43.555665181701],[-116.133077445364,43.5557515869303],[-116.133447677837,43.5558849318783],[-116.133685433422,43.5559347325879],[-116.133929029751,43.5560719801178],[-116.134115745264,43.5561849213806],[-116.134110337388,43.5568595354887],[-116.134109799022,43.55692693065],[-116.134095210826,43.5569077007603],[-116.134078328654,43.5568894901276],[-116.134059289546,43.5568724431839],[-116.134038242848,43.5568566935202],[-116.134015353946,43.556842367474]]]},"properties":{"PARCEL":"R0541500060","ACRES":5.232,"PRIMOWNER":"CITY OF BOISE (BOISE PARKS & RECREATION)               ","PROPADDNUM":"          ","PROPPREDIR":"E ","PROPSTNM":"TREKKER RIM              ","PROPSTTYPE":"DR        ","DEPT":"PARKS"}}]}