{"type":"FeatureCollection","crs":{"type":"name","properties":{"name":"EPSG:4326"}},"features":[{"type":"Feature","geometry":{"type":"Polygon","coordinates":[[[-116.20087956238,43.6149030458539],[-116.201178405788,43.6145926481226],[-116.202106915516,43.6150638700798],[-116.201997335817,43.6151777976825],[-116.20154497179,43.6156484746434],[-116.200616457379,43.6151772481902],[-116.20087956238,43.6149030458539]]]},"properties":{"PARCEL":"R1013000280","ACRES":1.791,"PRIMOWNER":"CITY OF BOISE                                          ","PROPADDNUM":"150       ","PROPPREDIR":"N ","PROPSTNM":"CAPITOL                  ","PROPSTTYPE":"BLVD      ","DEPT":"MAYOR"}}]}