{"type":"FeatureCollection","crs":{"type":"name","properties":{"name":"EPSG:4326"}},"features":[{"type":"Feature","geometry":{"type":"Polygon","coordinates":[[[-116.293864324297,43.699070176067],[-116.274199463662,43.6991327340518],[-116.274198518519,43.6991327383862],[-116.268588031546,43.6990972709556],[-116.268559670811,43.6990970910335],[-116.261816927731,43.6990540999947],[-116.261625992192,43.6990528975235],[-116.258736421333,43.6990344222163],[-116.253348608779,43.6989996430104],[-116.251399620396,43.698973712147],[-116.25099267318,43.698968293365],[-116.250903550008,43.6989671067238],[-116.248282837301,43.6989321754715],[-116.243217066735,43.6988634554625],[-116.233084607417,43.6987250028777],[-116.233084632192,43.6987280886566],[-116.232218277791,43.6987183218588],[-116.232000418082,43.6987158640922],[-116.228862156574,43.6986803660051],[-116.228623949753,43.6986775920485],[-116.228078537751,43.6986714747464],[-116.223072452182,43.6986148129746],[-116.21968497029,43.6985756654926],[-116.219503472326,43.6985735659458],[-116.218319958991,43.698559862536],[-116.215502464099,43.6985271924729],[-116.213057452499,43.6984987851631],[-116.20530499671,43.6984446175847],[-116.199217683364,43.6915767890619],[-116.197412963718,43.6895403018691],[-116.195512589425,43.6873956933275],[-116.188464569599,43.6794402429903],[-116.1726455874,43.6615752432022],[-116.172603348014,43.6615197509002],[-116.172530801861,43.661424437627],[-116.168513868449,43.6561464093169],[-116.157212362609,43.6412910765531],[-116.153038650453,43.6358027597861],[-116.144906132338,43.6248968699474],[-116.139287753831,43.6173598288354],[-116.139235468025,43.6172896785389],[-116.131653175289,43.6129103890723],[-116.126115772333,43.6084291776693],[-116.126036218355,43.5936462090165],[-116.12603135923,43.5927429119903],[-116.126030832644,43.5927428952067],[-116.125959945433,43.5927413796418],[-116.125575970457,43.5927331376884],[-116.125576103832,43.5927218132115],[-116.12459817127,43.5927121430285],[-116.124209055683,43.5927037857752],[-116.124209001392,43.5926816233966],[-116.124208986844,43.5926754687025],[-116.124207632463,43.5921232429357],[-116.12421060374,43.5908841864093],[-116.12420387565,43.590591636255],[-116.124202013418,43.5898323752529],[-116.124200522917,43.5892244723556],[-116.124200175269,43.5890827703356],[-116.114198188489,43.589078334613],[-116.113442189015,43.5890782915706],[-116.113241314542,43.5890782791837],[-116.109754461383,43.589078010735],[-116.109724387102,43.5869564950681],[-116.109710403733,43.5855093884923],[-116.109710388424,43.5855077680754],[-116.109709445405,43.585410236599],[-116.113657874193,43.5853936492502],[-116.114176610664,43.5853926172848],[-116.114139484715,43.5817248449172],[-116.114127486455,43.5805044395395],[-116.114123165184,43.5799883782564],[-116.114122414335,43.5799885397456],[-116.114122404164,43.5799874782112],[-116.11338686806,43.5801456040708],[-116.112867166881,43.5801514399812],[-116.112302720559,43.5800283300492],[-116.112104915964,43.5799216692101],[-116.111834255043,43.5797751144233],[-116.111575867759,43.5795137783738],[-116.111272204798,43.5792066459772],[-116.111027419571,43.5790470588423],[-116.110831524707,43.5789193449377],[-116.110565615611,43.5787459826409],[-116.110461717482,43.5785773146894],[-116.110324521067,43.5783545890359],[-116.11025146396,43.5780664371457],[-116.110206623282,43.5778895765052],[-116.110065809972,43.5776714332316],[-116.109942764105,43.5774808126441],[-116.109781853879,43.5772315319333],[-116.109628775565,43.5769943815696],[-116.109626936349,43.576685340261],[-116.10962511707,43.5763796440449],[-116.10984114089,43.5760164986819],[-116.110047937121,43.575668861086],[-116.110290904926,43.575260409796],[-116.110554749508,43.5750248529186],[-116.110850255176,43.5747608115887],[-116.111054536541,43.5745791700183],[-116.111053517924,43.5745791821501],[-116.111053715889,43.5745790052827],[-116.104173372635,43.5746558982381],[-116.10417164845,43.5740568679507],[-116.104187718122,43.5693801033565],[-116.104166809203,43.5693731438082],[-116.104165919967,43.5693728482537],[-116.104157509525,43.5693700482572],[-116.102556674393,43.5688372159866],[-116.101378805074,43.5684012044187],[-116.10110016128,43.5682980561816],[-116.100805708919,43.5681614655986],[-116.099776220781,43.5676838942747],[-116.099689060345,43.5676358402984],[-116.098691972478,43.5670861084434],[-116.098656052992,43.5670643556954],[-116.098637321062,43.5670529440295],[-116.098625770699,43.5670459041793],[-116.098618199333,43.5670413168463],[-116.098526060777,43.5669851898913],[-116.098519762368,43.5669812117481],[-116.098508766672,43.5669745144508],[-116.097942167172,43.5666132170868],[-116.097850113453,43.5665445678803],[-116.097791959216,43.5665051505939],[-116.09764758816,43.566399783853],[-116.097398670065,43.5662181130621],[-116.097357753076,43.566189457742],[-116.097328100409,43.5661663654289],[-116.097302887195,43.5661510334926],[-116.096699854775,43.5657287091266],[-116.095358097604,43.5647845243522],[-116.094777650694,43.5643805474277],[-116.094188868641,43.5639653748144],[-116.09415761731,43.5602918955439],[-116.09415802078,43.5602270939498],[-116.094159001958,43.5601232970983],[-116.094188543942,43.5569984927904],[-116.094210617731,43.5546635377827],[-116.094226048621,43.5530588042358],[-116.094263424824,43.5493429446932],[-116.094295957898,43.5456971968047],[-116.094300029013,43.5455440052806],[-116.094300397113,43.5445604509392],[-116.094379159795,43.5430824161593],[-116.094433241994,43.5420674990575],[-116.094457708553,43.5416083412324],[-116.094476995534,43.5412463803198],[-116.094520285773,43.5413501805925],[-116.094584975542,43.5414815803708],[-116.094658496976,43.5416104991113],[-116.094740669215,43.5417366225736],[-116.09483129353,43.5418596447986],[-116.094930149533,43.5419792653777],[-116.095036996147,43.5420951935645],[-116.095385426681,43.5424499813928],[-116.095007370249,43.5426437497761],[-116.094950256536,43.5426746515117],[-116.094899438707,43.5427109086157],[-116.094855858491,43.5427518489432],[-116.094820323264,43.5427967136619],[-116.094793491051,43.5428446730689],[-116.09477585834,43.5428948382852],[-116.094767751703,43.5429462804819],[-116.094769322227,43.5429980466692],[-116.094780539967,43.5430491789146],[-116.094801197798,43.5430987294185],[-116.094830912476,43.5431457810841],[-116.094869134143,43.5431894618905],[-116.095040640652,43.5433331237106],[-116.095204639606,43.5434813518564],[-116.095360901654,43.5436339385782],[-116.095509207779,43.5437906706087],[-116.095649350232,43.543951328474],[-116.09578113254,43.5441156871793],[-116.095904371396,43.5442835175746],[-116.096018892872,43.5444545829369],[-116.096124537168,43.5446286458131],[-116.096628902104,43.5456718459169],[-116.096664237926,43.5457451279207],[-116.096462738699,43.5457402847597],[-116.095882039742,43.545727881791],[-116.095654148271,43.5457230134919],[-116.095318036867,43.5457158327955],[-116.094509641278,43.545698557645],[-116.094369489088,43.5456961922051],[-116.0954183477,43.5464309011954],[-116.095631674932,43.5465729249372],[-116.095680543503,43.5466009301429],[-116.0957237728,43.5466334736661],[-116.095760572187,43.546669960598],[-116.095812322907,43.546752038967],[-116.097007386634,43.5493113141632],[-116.097910309439,43.5493286330803],[-116.098061999931,43.549343414012],[-116.098189233473,43.5493934423892],[-116.098429732848,43.5495042729052],[-116.098476102616,43.5496728235505],[-116.098514806592,43.5498423946493],[-116.098545801222,43.5500128018701],[-116.098569053317,43.5501838594764],[-116.098584537226,43.5503553817073],[-116.098592236722,43.5505271820861],[-116.098592143123,43.5506990741112],[-116.098565297162,43.5518538002097],[-116.09853000961,43.5529689465301],[-116.09852744287,43.5530500685962],[-116.09672319655,43.5530251075458],[-116.096234509706,43.5530179656134],[-116.09460376327,43.5529941167935],[-116.094600958083,43.5530602958783],[-116.094598820418,43.5533217349692],[-116.094874664055,43.5533229283214],[-116.094872268768,43.5536183508235],[-116.094951700523,43.5536670484234],[-116.095009804269,43.5537075509166],[-116.094987514699,43.5537205703112],[-116.094967333183,43.5537366823351],[-116.094950914642,43.5537549164323],[-116.09493867415,43.5537748105148],[-116.094930920017,43.5537958644133],[-116.094927847215,43.5538175446974],[-116.094918026912,43.5541245681129],[-116.094912762315,43.5542865333393],[-116.094906103689,43.5544947257075],[-116.09488414421,43.5551812385534],[-116.094886029982,43.5552040401938],[-116.094893089342,43.5552262988707],[-116.094905128303,43.5552473972899],[-116.094921811626,43.5552667514996],[-116.094942677993,43.5552838252461],[-116.094964604833,43.5552968730641],[-116.09498897073,43.555307386457],[-116.095015226483,43.5553151277467],[-116.095042779884,43.555319923848],[-116.095071009858,43.5553216655399],[-116.095396194208,43.5553238957696],[-116.095616773796,43.555323192157],[-116.095932060541,43.5553238289364],[-116.096159228025,43.5553252048567],[-116.096158186924,43.5554139754077],[-116.09615617853,43.5555851386242],[-116.096156599918,43.5557249753798],[-116.096161055879,43.5559108884353],[-116.096227554785,43.5560276464566],[-116.096705258616,43.5562062620522],[-116.096705013927,43.5562140750812],[-116.096694502885,43.5565461360009],[-116.096691992137,43.5566254686333],[-116.098396601436,43.5566365246413],[-116.098423306988,43.5567120082027],[-116.098452644233,43.5567869735238],[-116.09848459498,43.5568613712825],[-116.098519137279,43.5569351542254],[-116.098556250111,43.5570082737247],[-116.098595909643,43.5570806832183],[-116.098466015754,43.5571494970365],[-116.098095713745,43.5573822718074],[-116.098017868706,43.5573510354006],[-116.09793250952,43.5573329508636],[-116.097880270024,43.5574151751682],[-116.097705042281,43.557410479212],[-116.097529704746,43.5574117783174],[-116.097354644907,43.5574190692491],[-116.097180250176,43.5574323357453],[-116.097006905065,43.5574515485253],[-116.096834994009,43.5574766652815],[-116.096772688526,43.5574940869733],[-116.096719771165,43.5575236779419],[-116.096678443638,43.5575660795763],[-116.096656119864,43.557619044088],[-116.096658560841,43.5576744118806],[-116.096689673168,43.5577870827186],[-116.096700793377,43.5578273365779],[-116.096723524115,43.5579096408928],[-116.096746548974,43.5579787638228],[-116.096776997593,43.5580463507377],[-116.096814680875,43.5581119811429],[-116.096859361694,43.5581752463463],[-116.096916345699,43.5582547968823],[-116.096965855661,43.5583369506207],[-116.097007665941,43.5584213365689],[-116.097041589507,43.5585075747011],[-116.097067473211,43.5585952746006],[-116.097125330229,43.5588294077993],[-116.097148004407,43.5589012000299],[-116.097180029663,43.5589710834806],[-116.09722111189,43.5590384144138],[-116.097270873194,43.559102574718],[-116.097328856622,43.5591629732655],[-116.097394528097,43.5592190555078],[-116.097467284918,43.5592703055079],[-116.097546456739,43.5593162521092],[-116.097631315958,43.559356472334],[-116.097721083412,43.5593905968526],[-116.097814932158,43.5594183120296],[-116.097921669927,43.5594411244325],[-116.098037126372,43.5594661711763],[-116.098149377135,43.5594980036503],[-116.098257670393,43.5595364081366],[-116.098361278588,43.559581128328],[-116.098434943692,43.5596210631788],[-116.098476977382,43.5596530558113],[-116.098512445215,43.5596890095582],[-116.098540651888,43.559728216774],[-116.098561041291,43.5597699062976],[-116.098573214522,43.5598132605411],[-116.098576930897,43.5598574264582],[-116.098575045455,43.5600945409936],[-116.098577101024,43.5601458707156],[-116.098586982653,43.5601967171111],[-116.098604567916,43.5602464510152],[-116.098629639218,43.5602944565816],[-116.098661887618,43.5603401408715],[-116.098700911917,43.5603829379715],[-116.098746231906,43.5604223185542],[-116.098797284631,43.5604577953762],[-116.09885344046,43.5604889300876],[-116.099075908616,43.560598603648],[-116.09913902624,43.5606214431589],[-116.099204098703,43.5606411673873],[-116.099290699556,43.5606619189254],[-116.099379439438,43.5606771585076],[-116.099469657548,43.5606867708822],[-116.099560679203,43.5606906861028],[-116.099645742914,43.5606916679216],[-116.100874705619,43.560702491286],[-116.100872387154,43.5608437736756],[-116.100868988226,43.56105091103],[-116.100872154759,43.5611004508639],[-116.10088323162,43.5611493848886],[-116.100902068802,43.5611970483662],[-116.100928409823,43.5612427919714],[-116.100961897455,43.5612859941172],[-116.101002074699,43.5613260664393],[-116.101068361963,43.5613796923479],[-116.101140851389,43.5614288931039],[-116.10121898439,43.5614732898097],[-116.101302162045,43.5615125420955],[-116.101389745111,43.5615463494909],[-116.101481062501,43.5615744507138],[-116.101575411337,43.5615966318994],[-116.101672069179,43.5616127210773],[-116.101770292178,43.5616225957203],[-116.101869326383,43.5616261799672],[-116.101968412463,43.5616234459797],[-116.102066788541,43.5616144146194],[-116.102188202728,43.5615974409541],[-116.102308555654,43.5615768577994],[-116.102391430695,43.5615583815116],[-116.102471622084,43.5615344492304],[-116.102548452941,43.5615052626075],[-116.102621274006,43.5614710691571],[-116.102689469274,43.5614321581244],[-116.102752462574,43.5613888570355],[-116.102932058155,43.5612535039196],[-116.102974881972,43.561221229041],[-116.103167620953,43.5610759640145],[-116.103548989999,43.5607871649057],[-116.104805417313,43.5616680716979],[-116.104993498951,43.5617938284384],[-116.105187725806,43.5619145452617],[-116.105301015781,43.5619799433978],[-116.105206195249,43.5620559791401],[-116.104907343239,43.562322947819],[-116.104868453095,43.5624823074806],[-116.104859246086,43.5625692147338],[-116.104817246662,43.5625738711577],[-116.104738833448,43.5625971672839],[-116.104704364573,43.5626152276534],[-116.104674224346,43.5626370010517],[-116.104438744369,43.5628361838753],[-116.104393046111,43.5628739845271],[-116.104301136249,43.5629452142187],[-116.10420511807,43.5630135173589],[-116.104105166252,43.5630787692721],[-116.104048499973,43.563136711179],[-116.104034575034,43.5631832823354],[-116.104042818728,43.563233444105],[-116.104073771533,43.5632786707041],[-116.104123831316,43.5633136997104],[-116.104202145232,43.5633616255096],[-116.104284756094,43.5634055714535],[-116.104371280777,43.5634453364186],[-116.105073441764,43.5637447850074],[-116.105187630638,43.5637960014899],[-116.105300390272,43.5638488654011],[-116.105411655416,43.5639033454025],[-116.105521403374,43.5639594299112],[-116.10562958875,43.5640170964421],[-116.105736168978,43.5640763225018],[-116.105841114722,43.564137090356],[-116.105944371111,43.5641993700062],[-116.106118756205,43.5643105201461],[-116.106309932165,43.5644366696243],[-116.1063437552,43.5644556614926],[-116.106381280959,43.5644705271978],[-116.106421566043,43.5644808925046],[-116.106463598879,43.5644864972289],[-116.106506320494,43.5644871999736],[-116.106548658505,43.5644829841952],[-116.106593289179,43.5644728622693],[-116.106634842471,43.5644572850359],[-116.106672067787,43.5644367199792],[-116.106787693067,43.5644708842266],[-116.107264432613,43.5646285219011],[-116.107554429111,43.5648295357636],[-116.108043005972,43.564906859158],[-116.108153830542,43.5649271378987],[-116.10814309679,43.5649619070684],[-116.10813870516,43.5649960240917],[-116.108141667449,43.5650398127876],[-116.10815017497,43.5650721228639],[-116.108168181064,43.5651110894255],[-116.108190119256,43.565142953505],[-116.109078102797,43.5661526056561],[-116.10910678048,43.5661813247118],[-116.109142774665,43.5662093919277],[-116.1091758168,43.5662298104312],[-116.109210001979,43.5662468931856],[-116.109256606729,43.5662649024664],[-116.109719574263,43.5664171973834],[-116.109494117743,43.5667795663116],[-116.109466020331,43.5668247171744],[-116.109456292516,43.566844128256],[-116.109449309004,43.5668779483003],[-116.109452863742,43.5669079497715],[-116.109463848314,43.5669341438135],[-116.10948501564,43.566961599882],[-116.109515664047,43.5669857173014],[-116.109560129195,43.5670062060643],[-116.109539446281,43.5670885845549],[-116.109356066032,43.5673672977061],[-116.109085973235,43.5674670635903],[-116.109839568486,43.5677246209271],[-116.109516299646,43.5682259009615],[-116.110003305225,43.5685474372706],[-116.110029504294,43.5686051759897],[-116.109973898882,43.5686446298162],[-116.109923050396,43.568692603709],[-116.109879811995,43.5687443740382],[-116.109844715605,43.5687993041168],[-116.109818192966,43.5688567205409],[-116.109800569056,43.5689159180099],[-116.109792059327,43.5689761696216],[-116.10979276975,43.5690367357864],[-116.10980269027,43.5690968731634],[-116.109821700513,43.569155843557],[-116.109849566065,43.5692129228436],[-116.10992397025,43.5693341264812],[-116.109951479403,43.5693758319458],[-116.109984790361,43.5694152369],[-116.110023546914,43.5694519159128],[-116.110067327947,43.5694854725596],[-116.110634254066,43.5698718769529],[-116.110728414326,43.5699215161456],[-116.110826582093,43.5699668675356],[-116.110928387555,43.5700077594667],[-116.111046455837,43.570048138429],[-116.111168062087,43.5700825213964],[-116.111240113673,43.5700996786625],[-116.111384985244,43.5701276164172],[-116.111527536121,43.5701612799446],[-116.111667338476,43.5702005670557],[-116.111803972881,43.5702453611358],[-116.111937028284,43.5702955277154],[-116.112066107677,43.5703509158235],[-116.112190822448,43.5704113593773],[-116.112310798038,43.5704766778493],[-116.112421698604,43.5705388306563],[-116.112495649979,43.5705832424342],[-116.112552167278,43.5706185853104],[-116.112603444797,43.5706579263446],[-116.112648950963,43.5707008564551],[-116.112688213404,43.5707469307124],[-116.113172865386,43.5712865061634],[-116.113217249136,43.5713333649424],[-116.113267749823,43.5713768275479],[-116.113323879179,43.5714164724049],[-116.11338509351,43.5714519158318],[-116.114108476709,43.5718680526102],[-116.114179865051,43.5719853356312],[-116.114680345151,43.572120308197],[-116.114757890188,43.5721861743038],[-116.114737469969,43.5722588368651],[-116.114726350349,43.5723325587509],[-116.114724627553,43.5724067121795],[-116.114728028316,43.5724504066687],[-116.114743562234,43.5725128291646],[-116.114759314318,43.5725424753875],[-116.11477961713,43.572569896174],[-116.114803667876,43.5725946003307],[-116.114831626716,43.5726170262352],[-116.114863087992,43.5726368473825],[-116.114906865497,43.5726529006936],[-116.114953518326,43.572663869444],[-116.115001935685,43.5726694924701],[-116.11587723874,43.5726714950304],[-116.115913180712,43.572667811954],[-116.115947736938,43.5726597375321],[-116.11597990244,43.572647507458],[-116.116303597451,43.5723654775616],[-116.116333530248,43.5724775889994],[-116.116324461821,43.5730423688639],[-116.116478763122,43.5733628114724],[-116.117188577281,43.5733517534031],[-116.117238243214,43.5734011398921],[-116.117354693265,43.5735133372465],[-116.117364490978,43.5735537701569],[-116.117393783922,43.5735844100662],[-116.117425042635,43.5736153728188],[-116.117463002556,43.5736420848968],[-116.118036440045,43.5739455783032],[-116.118288129148,43.5740755779337],[-116.118330065626,43.5740925726179],[-116.118373216134,43.5741078777589],[-116.118423631367,43.5741231814178],[-116.118475256874,43.5741361797185],[-116.119586568117,43.5743680878547],[-116.119636053982,43.5743730807278],[-116.119686013254,43.5743731228661],[-116.1197405762,43.5743674246229],[-116.119793342032,43.5743558270241],[-116.119814784081,43.5743502214687],[-116.120008933037,43.5744389076295],[-116.120306332499,43.574550710264],[-116.120293164776,43.574583462641],[-116.120464433003,43.574584550212],[-116.123760503674,43.5746054230992],[-116.123860274124,43.5746060535328],[-116.123954650421,43.5746054945727],[-116.123965712605,43.5751278477502],[-116.123966988316,43.575750413868],[-116.123973199142,43.576269779149],[-116.123988176441,43.5763115811486],[-116.124010082178,43.5763517358986],[-116.124038587191,43.5763896375678],[-116.124073262547,43.5764247156252],[-116.124113585252,43.5764564430503],[-116.124158948657,43.5764843410997],[-116.12452663687,43.5767137558312],[-116.124946420726,43.5769718898933],[-116.125013340838,43.5770116999942],[-116.125067884863,43.5770441388882],[-116.125201342928,43.5771323308767],[-116.125590060324,43.5774144689676],[-116.125720089031,43.5775162751685],[-116.12583799558,43.5776104144218],[-116.125949873191,43.577708366354],[-116.126055486656,43.5778099273976],[-116.126505731554,43.5782753800581],[-116.126552176876,43.578329667378],[-116.126606852225,43.5784037379996],[-116.126653954816,43.5784805094048],[-116.126693236815,43.5785595716452],[-116.126724487115,43.5786405057352],[-116.126806565671,43.5789605274065],[-116.126831266205,43.5790401245444],[-116.126864693053,43.5791180196405],[-116.126906629905,43.5791937073041],[-116.126956803953,43.5792666981025],[-116.127014890596,43.5793365185448],[-116.127080514421,43.5794027158796],[-116.127153249226,43.5794648622101],[-116.127232623676,43.5795225544759],[-116.127318124164,43.5795754185581],[-116.12740919671,43.5796231120171],[-116.127505250748,43.5796653261374],[-116.127605663851,43.5797017865983],[-116.127709785527,43.5797322582624],[-116.127816940986,43.57975654242],[-116.127985582966,43.579798682187],[-116.128152107553,43.5798450598883],[-116.128316312556,43.5798956192837],[-116.128478000473,43.5799503000036],[-116.129357779817,43.5802398779763],[-116.129441242023,43.5802715920137],[-116.129520743496,43.5803082909457],[-116.129595723234,43.5803497160517],[-116.129665650199,43.5803955742245],[-116.129772533374,43.5804755787242],[-116.129890963864,43.5805636525711],[-116.130003070955,43.5806282282635],[-116.130133866518,43.580670311657],[-116.130204583714,43.5806821226773],[-116.130276798441,43.5806872595934],[-116.130349324385,43.5806856385711],[-116.131159623914,43.5806295646884],[-116.131617985208,43.5805978042899],[-116.131747245355,43.5805888589618],[-116.131904141278,43.5805780004649],[-116.132111041647,43.5805648741328],[-116.135144673374,43.5803415433732],[-116.138310916103,43.5800872728326],[-116.138518929622,43.580063628608],[-116.139011191977,43.5800426873916],[-116.14019242226,43.579938985849],[-116.141557616006,43.5798323366476],[-116.143672414636,43.5796373318261],[-116.143889274541,43.5796172908455],[-116.144316740703,43.5795777840045],[-116.144441601679,43.5795641803979],[-116.144565803265,43.5795476939106],[-116.144703206053,43.5795259581163],[-116.144839462208,43.579500694419],[-116.144974400237,43.5794719349603],[-116.145089332541,43.5794508304294],[-116.145202143056,43.5794243573932],[-116.145309605449,43.5793934946301],[-116.145414172916,43.579357759806],[-116.145733105863,43.5792440321573],[-116.146028784049,43.5791309903915],[-116.146319755325,43.5790116695239],[-116.146605769391,43.5788861733233],[-116.146769063564,43.5788141731629],[-116.147010776442,43.5787133259542],[-116.147265682611,43.5786267196526],[-116.147435588958,43.5785642201747],[-116.147612233042,43.5785302701664],[-116.147867388421,43.5784817594235],[-116.14812254339,43.578433248798],[-116.148332127242,43.5784277561214],[-116.14871711367,43.5784140442677],[-116.149482511257,43.5784470061867],[-116.150159086704,43.5785399685218],[-116.150804194291,43.5786760566884],[-116.151326052683,43.5788506394566],[-116.151802971884,43.5790757816301],[-116.152043488971,43.5792411947056],[-116.15238288687,43.5794684007173],[-116.152728472057,43.5798016665117],[-116.153291238479,43.5804304747356],[-116.153677305753,43.580855930495],[-116.153964280542,43.5811567253765],[-116.154301605704,43.5814467539281],[-116.154631027611,43.5816740501673],[-116.154966543693,43.5818853784237],[-116.15529224936,43.5820985262006],[-116.155597931337,43.5823165142707],[-116.156023259609,43.5826709754754],[-116.156611392436,43.5831832098426],[-116.156982667488,43.5834213342826],[-116.157289527897,43.5835611815106],[-116.157653397235,43.5837001087085],[-116.157859544211,43.5837729218701],[-116.158220537898,43.5839132455061],[-116.158383244237,43.5839965994356],[-116.158515475686,43.5840942615009],[-116.158610645152,43.5842011587374],[-116.15866770005,43.5842840175209],[-116.158742407085,43.5844310625769],[-116.158852301144,43.5846967612065],[-116.158947408603,43.5849553689878],[-116.159059241107,43.5851442690857],[-116.159287483504,43.5854720485612],[-116.159569825129,43.5858067767011],[-116.159812571903,43.5860987857033],[-116.16002320066,43.5863641219885],[-116.160199594584,43.586652796623],[-116.160416244343,43.5870806226055],[-116.160748665348,43.5876874916187],[-116.160826279598,43.5877862105382],[-116.161064567637,43.5881465693287],[-116.161345012841,43.5885128977522],[-116.161408120737,43.5885898659146],[-116.161625294574,43.5888547366836],[-116.161973002396,43.5892024551536],[-116.162295238025,43.5895196525298],[-116.162507228098,43.5897270457103],[-116.162939718513,43.5901540444674],[-116.163120158516,43.5903615867861],[-116.163236863281,43.5904958184329],[-116.163475344118,43.5908806599947],[-116.163629722848,43.5912841728787],[-116.163699833017,43.5916818679831],[-116.163724830878,43.5920852693191],[-116.16365597494,43.5925014349364],[-116.163541472393,43.5929602864597],[-116.1634857752,43.5931834815134],[-116.16340832236,43.5934295006524],[-116.163377454157,43.5935879087384],[-116.163332807591,43.5937692259113],[-116.163316613034,43.5938157155378],[-116.163298587589,43.5939390764123],[-116.163272358823,43.5942426207658],[-116.163261671243,43.5945066438465],[-116.163234093187,43.5959919382672],[-116.163231030267,43.5960332885959],[-116.163298001336,43.5964436480026],[-116.163511986024,43.596826902311],[-116.163603680873,43.5969233031702],[-116.163724881063,43.5970507199133],[-116.163834572908,43.5971477137866],[-116.165506826135,43.5986263156136],[-116.167279365439,43.6001928310262],[-116.167860421925,43.6007064032069],[-116.16806917941,43.6008734807138],[-116.168243700511,43.6010021088711],[-116.16842189823,43.6011164937016],[-116.168880318999,43.6013610041962],[-116.169224800894,43.6015040947835],[-116.169191087595,43.6015726720388],[-116.169168120275,43.6016284334174],[-116.169101947498,43.6017118975779],[-116.169067818533,43.6017722882982],[-116.169028746612,43.6018283260668],[-116.168999891129,43.6018828005537],[-116.168991242053,43.601935901456],[-116.168982788223,43.6020664991214],[-116.168974505483,43.6029670606889],[-116.168987644469,43.6036364892834],[-116.169015372315,43.6038927164834],[-116.169081227994,43.6042339805334],[-116.169142311852,43.604528853662],[-116.16921803692,43.6048787624894],[-116.169281293159,43.6051545502916],[-116.169374705153,43.6054240555567],[-116.169502698663,43.6056450875255],[-116.169746125568,43.6059090701039],[-116.169958883897,43.6061052742496],[-116.171247688736,43.6068706447156],[-116.171554452013,43.6070128384634],[-116.171980477404,43.6071248304806],[-116.172310639968,43.6071840599706],[-116.172620456487,43.6072015554865],[-116.172797353884,43.6072058443828],[-116.17292226751,43.6071960285359],[-116.172923520208,43.607736756349],[-116.172941684855,43.607788926466],[-116.172968388896,43.6078391201617],[-116.173003243086,43.6078866016751],[-116.173045734832,43.6079306761606],[-116.173095243351,43.6079706985466],[-116.173151043499,43.6080060810663],[-116.173212317191,43.6080363069307],[-116.173278166634,43.6080609330234],[-116.17334762854,43.6080795980778],[-116.173419684551,43.6080920288109],[-116.173493280138,43.6080980432824],[-116.173483319722,43.6081550746311],[-116.173483656726,43.6083512132646],[-116.173483931082,43.6085107111214],[-116.173484390089,43.608777236687],[-116.173484972225,43.6091160576544],[-116.173359625456,43.6092630063557],[-116.173485589535,43.609475626913],[-116.173485745973,43.6095662567543],[-116.173486045545,43.609740642395],[-116.173486348867,43.6099170414162],[-116.173486764038,43.6101586121708],[-116.173486837134,43.6102013129774],[-116.173487636132,43.6106661275596],[-116.173486962962,43.6108373245448],[-116.173487466186,43.6111574833372],[-116.173487796063,43.6113675216174],[-116.173489365517,43.6116059904451],[-116.173489871404,43.6119628381684],[-116.173486670007,43.6120450256423],[-116.173756590824,43.6120435111157],[-116.173926473323,43.6120428812811],[-116.174775873667,43.6120380139599],[-116.1751227505,43.6120312946943],[-116.175296690724,43.6120566923103],[-116.175436422609,43.6121096934184],[-116.176421683811,43.6125432942683],[-116.177115239252,43.6128455663646],[-116.177755978058,43.6131803209949],[-116.177852982642,43.613099931573],[-116.178108684029,43.6129969644029],[-116.178448029437,43.6129358603444],[-116.178685094377,43.6129078641294],[-116.17890162,43.6128852529699],[-116.179134916367,43.6128771111255],[-116.179347753306,43.612867114538],[-116.179451535204,43.6128662337172],[-116.17959224553,43.6128816867387],[-116.179724385957,43.6129200714659],[-116.179840974833,43.6129793623779],[-116.179891471491,43.6130159074229],[-116.179935855003,43.6130564261131],[-116.180251792622,43.6133597619521],[-116.180510222323,43.613603425168],[-116.180765425214,43.6138616319366],[-116.180963681688,43.6140812997004],[-116.181024206067,43.6141537348921],[-116.181098202431,43.6142454975194],[-116.181434290074,43.6149751088572],[-116.18155075622,43.6151781287285],[-116.181647670142,43.6153190202458],[-116.181717228895,43.6153809596406],[-116.181837748323,43.6154513519059],[-116.181971755231,43.6154764176936],[-116.182077916574,43.6154704268547],[-116.182202773564,43.615448155878],[-116.183450466945,43.6151037273798],[-116.184816167548,43.6147613237296],[-116.186010273599,43.6144610215697],[-116.185989452873,43.6148469080462],[-116.185964873999,43.6150824959362],[-116.185949055676,43.6153180504041],[-116.185893068106,43.6160565711156],[-116.185882516757,43.6162162903473],[-116.185815212037,43.6174061855043],[-116.185758669538,43.6180683312788],[-116.185737168888,43.6187303427044],[-116.185712311813,43.6189277434308],[-116.185695930198,43.6193306503831],[-116.185647682259,43.6195272898757],[-116.185559664987,43.6196585433203],[-116.185504423905,43.6197196020891],[-116.185373488327,43.619830362367],[-116.185298747968,43.6198792551357],[-116.18521853853,43.6199233374861],[-116.185133444835,43.6199622883015],[-116.185044087837,43.6199958219887],[-116.18498788004,43.6200137717258],[-116.184855212753,43.6200457042176],[-116.184757073078,43.6200616888473],[-116.184747610704,43.6200964936289],[-116.185127418104,43.6206771168221],[-116.186888646712,43.6199260671705],[-116.187091200167,43.6204350359067],[-116.186619778335,43.6218155607163],[-116.187180392982,43.6219318841352],[-116.188029086203,43.6215504373339],[-116.189329902816,43.6219438736953],[-116.190091491612,43.6223052543547],[-116.191015998052,43.6236330502569],[-116.191422916654,43.6235235189882],[-116.191527191747,43.6234881006511],[-116.191554484488,43.6239579514236],[-116.19153613851,43.6242192327791],[-116.191542481977,43.6243939621298],[-116.191563426507,43.6244876960798],[-116.191603708057,43.6246100324814],[-116.191766855383,43.6247795798952],[-116.191852325137,43.6248636804664],[-116.191834467621,43.6253009378468],[-116.191836224685,43.6257453788473],[-116.191839489877,43.6258505221656],[-116.191843247373,43.626022747445],[-116.19185362923,43.626495528405],[-116.191856388752,43.6266260961857],[-116.191806517392,43.6266278552125],[-116.1915834666,43.6266293342068],[-116.191389585858,43.6266328822328],[-116.191374843958,43.6274625210011],[-116.191023728458,43.6274726202323],[-116.19083300665,43.6274695841696],[-116.190701572988,43.627538960498],[-116.190598065819,43.6276165569223],[-116.190485578051,43.6277260270355],[-116.190443664443,43.6278871084251],[-116.190444569488,43.6279969624126],[-116.190441523769,43.6280383131662],[-116.191535342046,43.6280499635626],[-116.192090555354,43.6280384002368],[-116.192163807422,43.6280390536814],[-116.192250498633,43.6280451638038],[-116.192336054729,43.6280570173828],[-116.192419755616,43.6280745136578],[-116.192500898801,43.628097506542],[-116.192578800324,43.6281258025613],[-116.193182714581,43.6283407392948],[-116.193315347371,43.6283609391145],[-116.19344929629,43.6283758745774],[-116.193584164462,43.6283855005872],[-116.193719552309,43.6283897898896],[-116.193855062246,43.6283887296257],[-116.194044331734,43.6283886117875],[-116.194036045962,43.628801986108],[-116.194046480753,43.6290775575018],[-116.19405467693,43.6291356013442],[-116.194076775492,43.6291851522136],[-116.194141058518,43.6292378911899],[-116.194220856186,43.6292518387808],[-116.194627556433,43.629266001369],[-116.195221502028,43.6292720930379],[-116.196367172217,43.6292711440032],[-116.19636485498,43.6299248870317],[-116.196365280491,43.6301794800559],[-116.19635535376,43.6310580044262],[-116.196348307425,43.6314929698342],[-116.196362767413,43.6315972984097],[-116.19641804611,43.631669157315],[-116.196449791594,43.6316901129218],[-116.196513637457,43.6317322572526],[-116.196671611427,43.6318208931579],[-116.196833794122,43.6319011570919],[-116.196985964298,43.6319427583888],[-116.197544904601,43.6319450289758],[-116.197540088846,43.6328228206573],[-116.197535121962,43.6334257945236],[-116.197586107263,43.6334259515067],[-116.197639315018,43.6334254620077],[-116.198186610117,43.6334290498779],[-116.198188037219,43.6336210783085],[-116.198282456212,43.6336215652921],[-116.198282123765,43.6337038577796],[-116.198577658617,43.6337057844054],[-116.198687210567,43.6337098119112],[-116.199857963108,43.6337098396525],[-116.201013658234,43.6337164295286],[-116.202188219352,43.6337207043766],[-116.203347726051,43.6337318844568],[-116.203354376078,43.6346164882015],[-116.203368497161,43.635490090026],[-116.203367517217,43.6363644373652],[-116.203398879109,43.6365170659132],[-116.203486774235,43.6366538691695],[-116.203533433268,43.6367061446661],[-116.203566756592,43.6367428720273],[-116.204105980842,43.6371302426666],[-116.204619559361,43.63762177671],[-116.204840449846,43.6378646854919],[-116.20500817221,43.6380687171915],[-116.205599813617,43.6387157302176],[-116.205693556606,43.638809616919],[-116.205898563712,43.6389873883619],[-116.2060159509,43.6390755984173],[-116.206139171515,43.6391595073088],[-116.20626792941,43.6392389111576],[-116.206401909633,43.6393136178186],[-116.206540789759,43.6393834461494],[-116.206684233286,43.6394482274083],[-116.207036730844,43.6396119837423],[-116.20732486433,43.6397546693858],[-116.207893625847,43.640045897497],[-116.208291791621,43.6402536298883],[-116.209558072711,43.6408772158929],[-116.210822428036,43.6414651978114],[-116.212094121085,43.6420761569362],[-116.213105412061,43.6425455446166],[-116.213276327395,43.6426444825444],[-116.21377038338,43.6429493932997],[-116.214007745641,43.6431097822432],[-116.214238375877,43.6432752698989],[-116.214431059685,43.6434025444332],[-116.215023372434,43.6437999337504],[-116.215926962223,43.6443956074061],[-116.217097764024,43.6451817934996],[-116.217476160861,43.6454355785618],[-116.217826220845,43.6456767883716],[-116.218381192971,43.6460733720613],[-116.218722239882,43.6463495636383],[-116.219422163649,43.6469762176383],[-116.220916177139,43.6477055484105],[-116.221386380194,43.6479348823499],[-116.221693499765,43.6480807105946],[-116.222758576353,43.6486053319539],[-116.223297784307,43.6488503246908],[-116.223636711835,43.6490378499625],[-116.224065418192,43.6492953030942],[-116.224294198364,43.6494595401402],[-116.224504356548,43.6496171116516],[-116.224695946571,43.6497747598791],[-116.224922916205,43.6499523164717],[-116.225176672239,43.6501551034437],[-116.225278364548,43.6502362858587],[-116.225379112748,43.6503174721082],[-116.225480805604,43.6503986543384],[-116.225582498735,43.6504798364757],[-116.225684192139,43.6505610185201],[-116.225784941429,43.6506422044023],[-116.225886635381,43.6507233862618],[-116.225988329606,43.6508045680285],[-116.226089079713,43.6508857536354],[-116.226190774486,43.6509669352171],[-116.226413176104,43.6511448198583],[-116.226719372964,43.6512897811543],[-116.226799949331,43.6513276760865],[-116.227550755575,43.6516831932336],[-116.228257149436,43.6520985281448],[-116.229016387925,43.6526170631687],[-116.229713259272,43.6530785700938],[-116.230839716708,43.6538341564274],[-116.232107350267,43.6546652614536],[-116.232146513174,43.654708692607],[-116.232210520902,43.6547652376005],[-116.232313763138,43.6548198333697],[-116.232404884883,43.6548573108925],[-116.232565868781,43.6548984749497],[-116.23268312073,43.6549547866668],[-116.232735728951,43.6549890107848],[-116.232826044723,43.6551138513476],[-116.232854587022,43.6552553944959],[-116.232950109577,43.6553229693868],[-116.233215880061,43.6554292639228],[-116.233307106059,43.6555045206963],[-116.2333732342,43.6555848463496],[-116.233393586797,43.6556559151257],[-116.233408886448,43.6557499527539],[-116.233457793993,43.6557947363842],[-116.233514253733,43.6558307953932],[-116.233607932,43.6558618383355],[-116.233714797686,43.6558769014347],[-116.233853068196,43.6559549046989],[-116.23467073262,43.6563397637565],[-116.235238388873,43.6566682380832],[-116.236016757982,43.6570847030631],[-116.237939170603,43.6581031682018],[-116.238071917781,43.6581663768726],[-116.23824969581,43.6582562390659],[-116.238950871339,43.6586193428696],[-116.239493118568,43.6589748843205],[-116.240805274427,43.6598372791037],[-116.241198331875,43.6600934174265],[-116.24228115621,43.6608199650309],[-116.243268012189,43.6614841518975],[-116.243768655487,43.6618312118555],[-116.243989212157,43.6620032409638],[-116.244313007083,43.6623239752355],[-116.244709184382,43.662716399739],[-116.244782408084,43.6627759150472],[-116.245476250939,43.6633065692519],[-116.245575866879,43.6633903112438],[-116.245667888204,43.6634785140061],[-116.245751937842,43.6635708143699],[-116.245827671651,43.6636668339366],[-116.245894776517,43.6637661777138],[-116.246129597883,43.6641685136156],[-116.246214926204,43.6642934809207],[-116.246308717642,43.6644152096203],[-116.246410739259,43.6645333982868],[-116.246520737401,43.6646477544968],[-116.246858784484,43.6649669855747],[-116.247400775336,43.6654847976212],[-116.247484013581,43.6655556237068],[-116.247572803858,43.6656228020303],[-116.247666844826,43.6656861041627],[-116.24776581446,43.6657453141088],[-116.24786937573,43.6658002296543],[-116.247977175666,43.6658506637418],[-116.248088847256,43.665896445148],[-116.248312478495,43.6659848553284],[-116.248309852006,43.6665684661562],[-116.248316435822,43.6675575322856],[-116.248321291244,43.6684091214097],[-116.248312728162,43.6684865016691],[-116.248307291436,43.6685131107368],[-116.248296270268,43.6685632058991],[-116.248272007555,43.6686388105931],[-116.248240075418,43.6687128989025],[-116.248789528805,43.6687185754066],[-116.249927507427,43.6687420527574],[-116.251024218175,43.6687603836881],[-116.252203979863,43.6687727551476],[-116.253342375751,43.6687799792367],[-116.253351893922,43.6687801252219],[-116.253359633192,43.6687469204681],[-116.253383047896,43.6686963053026],[-116.253407114922,43.6686719756928],[-116.253449363481,43.6686453633569],[-116.25405624433,43.6691888484765],[-116.254280945973,43.6693852205478],[-116.254450105777,43.6695551298643],[-116.254611677724,43.6697288865921],[-116.254765497788,43.6699063118195],[-116.254911406638,43.6700872238703],[-116.255049254345,43.6702714369115],[-116.255156547272,43.6704272402522],[-116.255300210865,43.6706490059748],[-116.255596038732,43.6711719357527],[-116.255787960391,43.6714992095471],[-116.255988750621,43.6718236684928],[-116.25619833288,43.6721451846463],[-116.256416624982,43.6724636335164],[-116.256489820742,43.6725479245203],[-116.256571193615,43.6726281682582],[-116.256660319693,43.6727039482812],[-116.25675673651,43.6727748702551],[-116.256859943077,43.6728405660757],[-116.256969402713,43.6729006931701],[-116.257084545924,43.6729549406568],[-116.25918005489,43.6737440814886],[-116.259837802809,43.6740074543425],[-116.260267725877,43.6742071506347],[-116.260830032531,43.6745041020531],[-116.263392196603,43.6758570939686],[-116.264750531955,43.6765797138543],[-116.265362604282,43.6769053177782],[-116.266383539317,43.677406282684],[-116.266736324175,43.6775582974075],[-116.266918052033,43.6775953636767],[-116.267631720681,43.6777416285673],[-116.267735833818,43.6777625868758],[-116.268527093052,43.6779215240429],[-116.268750038936,43.6779600859985],[-116.269191232569,43.678050220185],[-116.270028586095,43.6782451063083],[-116.270495516184,43.6784244659623],[-116.270837164898,43.6785741466781],[-116.271276796511,43.6788090803289],[-116.271542044998,43.6789591079928],[-116.271688823597,43.6790643035493],[-116.271815027565,43.6791998407658],[-116.27210804741,43.6795767811391],[-116.273360150618,43.6811874197024],[-116.273523805429,43.6813979284028],[-116.273799637952,43.6817268435482],[-116.274085826193,43.6820945358457],[-116.274132283014,43.6821504517773],[-116.274184848845,43.6822034430516],[-116.274243175732,43.6822531574072],[-116.274306878138,43.6822992674421],[-116.27437553291,43.6823414671849],[-116.274448686894,43.6823794782329],[-116.274525855972,43.6824130476985],[-116.274606528895,43.6824419543643],[-116.275597228146,43.6827912638473],[-116.27611662799,43.6829743927014],[-116.276249182431,43.6830238048171],[-116.276378742791,43.6830772360528],[-116.276505078627,43.683134590103],[-116.276855730877,43.6833101882458],[-116.277194839346,43.6834902479432],[-116.277546375592,43.6836655415747],[-116.278223210757,43.6839729929243],[-116.278554959588,43.6841044359086],[-116.278624099177,43.6841235771833],[-116.278695734651,43.6841370432344],[-116.278768984807,43.6841446701242],[-116.278842948267,43.684146363957],[-116.278916714834,43.6841421028844],[-116.27898937686,43.6841319397958],[-116.279060041509,43.684116000204],[-116.279365620446,43.6840345292219],[-116.279447881915,43.6841550136463],[-116.279642351557,43.6843768955029],[-116.279713983581,43.6844439258143],[-116.279792414204,43.6845068210216],[-116.279877192325,43.6845652176956],[-116.279967829281,43.6846187800113],[-116.280063803572,43.6846671997271],[-116.280164561812,43.6847101968659],[-116.28050749549,43.6849038925765],[-116.281318512514,43.6851877162387],[-116.28246538079,43.685477396176],[-116.282633586989,43.6855134251172],[-116.282804034159,43.6855433970786],[-116.282976309596,43.6855672385419],[-116.283149995056,43.6855848911032],[-116.28332466772,43.6855963135267],[-116.283511381633,43.6856248404574],[-116.283696598446,43.6856581133134],[-116.283880090094,43.6856960906503],[-116.284061627513,43.6857387248581],[-116.284241048834,43.6857859803575],[-116.284667575043,43.685917836192],[-116.286218346685,43.6863312431162],[-116.286386910266,43.6863774832571],[-116.286551955049,43.686429984134],[-116.286713041339,43.6864886038184],[-116.286869736873,43.6865531866338],[-116.287485415374,43.6867779057031],[-116.288046291181,43.6869854187736],[-116.288224137328,43.687036678162],[-116.289190715098,43.6873055682222],[-116.290631641822,43.6877248033618],[-116.290975025978,43.6878273165036],[-116.291488664066,43.6880023936615],[-116.291655465823,43.6880523518275],[-116.291825416997,43.6880963678587],[-116.291871209308,43.6881070858038],[-116.292674991602,43.6882665805585],[-116.292883113686,43.6883020695489],[-116.29309315017,43.6883310165826],[-116.293304711167,43.688353368642],[-116.293517403104,43.6883690837022],[-116.294052408625,43.6883970559087],[-116.294635292506,43.688420510853],[-116.294875391716,43.6884445152109],[-116.295113958572,43.6884755402518],[-116.295350603355,43.6885135357273],[-116.295584938121,43.6885584390401],[-116.296142652139,43.6887051408878],[-116.297131618975,43.6889657977459],[-116.297787800614,43.6891384593855],[-116.298920110007,43.689436392753],[-116.299021172277,43.6894553532754],[-116.299132159287,43.6894761765367],[-116.300996461287,43.6898239857571],[-116.301377329704,43.6898950371546],[-116.301377790365,43.6899655412737],[-116.301379647054,43.690095899374],[-116.301474391048,43.6900969420562],[-116.301491808008,43.6903437371847],[-116.301500350924,43.6904647882118],[-116.301498142391,43.690464276324],[-116.301500487739,43.6904667241169],[-116.301501711829,43.6904840787225],[-116.301506998613,43.690558975795],[-116.301604117816,43.6905780175139],[-116.302886274267,43.6919319663812],[-116.302672281392,43.6919292542974],[-116.302672283105,43.691929337951],[-116.302665211991,43.6919292219602],[-116.302666440513,43.6919784077808],[-116.302744264258,43.695096406541],[-116.302452240185,43.6951952451528],[-116.302345928435,43.6957592899907],[-116.302257411066,43.6959567554732],[-116.302217878641,43.6960387895819],[-116.30221966408,43.6960409616472],[-116.302217316228,43.6960461984193],[-116.302711724927,43.6966762146477],[-116.302739457232,43.6966734314875],[-116.302744806034,43.6966799401512],[-116.303604252588,43.6965886849106],[-116.303952554587,43.6965517011382],[-116.303954642352,43.6965591904021],[-116.303954357506,43.6966007311985],[-116.303953305895,43.6967543556699],[-116.303936763533,43.6991688213184],[-116.303936668734,43.6991825477799],[-116.303924198628,43.6991824093435],[-116.303628086553,43.6991791184225],[-116.298919478327,43.6991266841413],[-116.296801969619,43.6991030409107],[-116.293864324297,43.699070176067]]]},"properties":{"AREA_NAME":"IR1","ACRES":15831.22069769}},{"type":"Feature","geometry":{"type":"Polygon","coordinates":[[[-116.145939047394,43.5092867293595],[-116.145940772,43.5092457037557],[-116.145983669798,43.5082249730883],[-116.146226494379,43.5080478959014],[-116.146289860706,43.5080699283315],[-116.146351912893,43.5080938593927],[-116.146412545141,43.5081196469359],[-116.146471649759,43.508147247447],[-116.146529129392,43.5081766132618],[-116.146584880058,43.5082076919386],[-116.146638807199,43.5082404316891],[-116.14669081717,43.5082747759215],[-116.146740820065,43.5083106639161],[-116.146788729736,43.5083480335691],[-116.146834464739,43.5083868213887],[-116.146877942658,43.5084269597717],[-116.146919090485,43.5084683790251],[-116.146957837088,43.5085110080777],[-116.146994114137,43.5085547724197],[-116.147027859891,43.5085995968326],[-116.147059015425,43.5086454040305],[-116.147087527455,43.5086921153366],[-116.147113346438,43.508739647946],[-116.147136427555,43.5087879210947],[-116.147156731624,43.508836851256],[-116.147489447193,43.5087693367623],[-116.147804558718,43.5087053944018],[-116.148049412909,43.5093287532047],[-116.1480648934,43.509368166348],[-116.148077248086,43.5093996189232],[-116.15172775807,43.5094067388356],[-116.152381522512,43.509406701006],[-116.153899540466,43.5094080426371],[-116.153893843011,43.5096755431039],[-116.153893830894,43.5096761281127],[-116.153896404049,43.5096761210807],[-116.153896352541,43.5096784288952],[-116.16377846753,43.5096489363115],[-116.170773439214,43.5096288345295],[-116.170773632364,43.5096288338187],[-116.173712998688,43.509622743194],[-116.173663069212,43.5132545313459],[-116.173667827722,43.5132545342873],[-116.173667800202,43.5132566616614],[-116.176047826385,43.5132558676716],[-116.17863453622,43.5132572607458],[-116.183604933414,43.5132597739188],[-116.183588513726,43.5142729854037],[-116.183543397311,43.5168878566601],[-116.193472733672,43.5168861870912],[-116.213414242338,43.5168865855152],[-116.213309038002,43.5277529092643],[-116.218378896976,43.5277777964592],[-116.223443188708,43.5278024311395],[-116.223410247855,43.5311455829224],[-116.223407479096,43.531426534598],[-116.223407460923,43.5314284287754],[-116.223408404462,43.5314284337837],[-116.223408408154,43.5314290262754],[-116.233541327282,43.5314814199753],[-116.248730082448,43.5316410249146],[-116.248730333343,43.531625604241],[-116.250963415199,43.531646688404],[-116.253793786693,43.5316733491916],[-116.270431515037,43.5319595566736],[-116.270596486551,43.5319623935897],[-116.270600020155,43.5319611794571],[-116.270688165739,43.5319309024276],[-116.270768467768,43.5319033191068],[-116.270766973002,43.5318390341362],[-116.270773101605,43.5317844887457],[-116.270773933914,43.5317779193768],[-116.27077839909,43.5317426771197],[-116.270778406235,43.5317426311405],[-116.270813771855,43.5315859687219],[-116.270845989735,43.5314432836254],[-116.270856481116,43.5313968186878],[-116.270870499193,43.5313369534758],[-116.270889119267,43.5312574295363],[-116.270904665543,43.5311910377245],[-116.270915228511,43.53114545367],[-116.270932834637,43.53106947498],[-116.271002815187,43.5307674707089],[-116.2710077922,43.5307517459128],[-116.271036822953,43.5306600308537],[-116.27107438716,43.5305413541799],[-116.271120271583,43.5304309511239],[-116.271131639684,43.5304035959896],[-116.271141716909,43.5303730050945],[-116.27115092797,43.5303450460241],[-116.271153710713,43.5303401623027],[-116.271162695924,43.5303243965982],[-116.27119363854,43.5302701022057],[-116.271361609981,43.5300352399332],[-116.271601556424,43.5296997371026],[-116.271603114982,43.5296977234237],[-116.271615553617,43.5296816532173],[-116.271623928056,43.5296708326195],[-116.27180488383,43.5295055704625],[-116.271818441836,43.529493187321],[-116.271823817792,43.5294893354921],[-116.271905812462,43.5294305807888],[-116.271963636338,43.5293891444491],[-116.2720981954,43.529311602239],[-116.272103378956,43.5293086139766],[-116.272109381411,43.5293058263345],[-116.272230111827,43.5292497445726],[-116.272325889139,43.5292143525828],[-116.272330641266,43.5292125965559],[-116.272335464277,43.5292110815967],[-116.272364150435,43.5292020718518],[-116.272423697823,43.5291833689739],[-116.272532471325,43.5291563805394],[-116.272538441668,43.5291548994171],[-116.272540162773,43.5291545788392],[-116.272624858629,43.5291388468927],[-116.272709704995,43.5291230860787],[-116.27290178454,43.5291079512671],[-116.272903732347,43.529107797661],[-116.273080746865,43.5291069879602],[-116.273080920282,43.5291069871668],[-116.273236453695,43.5291206671092],[-116.273236552774,43.5291206803712],[-116.273463104225,43.5291606141302],[-116.273582142028,43.5291929854431],[-116.273605541291,43.5292015066698],[-116.27369465579,43.5292339600354],[-116.273939128898,43.5293660937203],[-116.274050711627,43.5294264013949],[-116.274200843282,43.5295662964172],[-116.274204278842,43.5295685869168],[-116.274206057952,43.5309292063109],[-116.274207219008,43.5332046776181],[-116.274207605069,43.5339619094674],[-116.274204461784,43.5355756061384],[-116.274189121941,43.5363621942587],[-116.274202558046,43.5366520540418],[-116.274219498274,43.536796562971],[-116.274307402444,43.5372713402391],[-116.274326090963,43.5374378447668],[-116.274311698468,43.5378120715151],[-116.274246139519,43.5381262954302],[-116.274193563394,43.5386449950368],[-116.274187981425,43.5397105493025],[-116.27418244597,43.5407673287226],[-116.274176380104,43.5419254507931],[-116.274174397778,43.5426186996906],[-116.274174142594,43.5429099050058],[-116.274174682004,43.5430867366368],[-116.274175676958,43.5432497719047],[-116.274176007088,43.5438925106086],[-116.274176035333,43.5441246971787],[-116.274176340877,43.5465423039639],[-116.273984963432,43.546536762405],[-116.273118736383,43.5465105579286],[-116.272505217967,43.5464919982407],[-116.271751649393,43.546469204811],[-116.270998072541,43.5464465888661],[-116.27024450199,43.5464238732887],[-116.269486922183,43.5464014720137],[-116.268868441413,43.546382933185],[-116.268680053395,43.5463771483603],[-116.263694475983,43.5462218131603],[-116.263564389405,43.5462190660959],[-116.263559486792,43.553641589524],[-116.263609578161,43.5536554220893],[-116.264064111859,43.5536617799457],[-116.264035037402,43.5595266708114],[-116.264036914029,43.5595465331989],[-116.264042365404,43.5595752512993],[-116.264054146787,43.5596053721369],[-116.26408673841,43.5596429435389],[-116.264110793132,43.5596598890614],[-116.26401821272,43.5597204828813],[-116.263972853205,43.5597501721029],[-116.263951731996,43.5597600550241],[-116.26392528135,43.5597668786836],[-116.263890977053,43.5597678921484],[-116.263681534484,43.5597647173831],[-116.263524214349,43.5597525522413],[-116.263518692993,43.5609166913626],[-116.263525464332,43.561515737072],[-116.262273745692,43.5608953565321],[-116.262262840413,43.5608951063998],[-116.26171951018,43.560626496504],[-116.2614459083,43.5604552658231],[-116.261184287058,43.5602512505644],[-116.260452170304,43.5597056854364],[-116.260326667513,43.5596105947294],[-116.260040945009,43.5594311560439],[-116.259948408458,43.5593729493402],[-116.259918073333,43.5593540545669],[-116.25951172296,43.5591396776923],[-116.259068705156,43.5589298433258],[-116.258638840835,43.5587300459715],[-116.258432463752,43.5586340991275],[-116.25821290915,43.55854095356],[-116.258061493469,43.5584768213975],[-116.257762783225,43.5583900271639],[-116.257664472508,43.5583613185764],[-116.257296038498,43.5582810046151],[-116.256815459845,43.5582090736733],[-116.25635565231,43.5581399618635],[-116.256114155429,43.5585790651683],[-116.256059726731,43.5586864574353],[-116.255651123663,43.5585757999564],[-116.253679243552,43.5582232754686],[-116.253506424185,43.5581926627786],[-116.252054944312,43.5579363964671],[-116.251880891478,43.557906032925],[-116.251551026168,43.5578484865439],[-116.25105215061,43.5577649028149],[-116.248502399833,43.5573177768878],[-116.248278967595,43.5572812194418],[-116.247424076312,43.5571414305602],[-116.246699238462,43.5570628039387],[-116.246129393361,43.5570263607918],[-116.24555595566,43.5570117035352],[-116.243224992493,43.5570147540366],[-116.242847813414,43.5570151804847],[-116.242722452115,43.5569058263629],[-116.242316460017,43.5566101230869],[-116.241865577438,43.5563595293489],[-116.241373575559,43.5561540284161],[-116.240848026171,43.5559971875423],[-116.240477766714,43.5559199131267],[-116.23892280434,43.5556476203533],[-116.238664379334,43.5556001905745],[-116.236029331252,43.5551446245793],[-116.233451581846,43.5546974538149],[-116.23128833629,43.5543186067999],[-116.225178419129,43.5532536563257],[-116.218057529091,43.5520155107614],[-116.193467840953,43.5477342154776],[-116.18860726302,43.5469014099394],[-116.186670135905,43.5465546244283],[-116.185388026388,43.5463250497826],[-116.184634854112,43.5461901777674],[-116.183841946423,43.5460555208334],[-116.183362352941,43.5459717994077],[-116.183292348371,43.5459629830704],[-116.182895149336,43.5458902386101],[-116.182101279664,43.5457518014983],[-116.179673435371,43.54532788725],[-116.178883353707,43.5451897564234],[-116.171770917738,43.543949768196],[-116.164952570543,43.542738091585],[-116.162958543799,43.5424040934591],[-116.161362005792,43.5421229455285],[-116.161074001692,43.5420721946923],[-116.160811099634,43.5420255601442],[-116.159023400503,43.5417079406391],[-116.158647116373,43.5416371786983],[-116.156690019797,43.541252973866],[-116.155782595807,43.5410908654351],[-116.155405087306,43.5410274376532],[-116.155404470122,43.5413755516704],[-116.155404267116,43.5414903072698],[-116.155405243169,43.5416337218603],[-116.155414917491,43.5417769643356],[-116.155433268491,43.5419197577186],[-116.155460262302,43.5420618223307],[-116.155495846235,43.5422028833585],[-116.155539949674,43.5423426639929],[-116.155592488843,43.542480893642],[-116.15565335923,43.5426173024711],[-116.155722445036,43.5427516254846],[-116.155799608793,43.5428835998196],[-116.155884702701,43.5430129695064],[-116.155977560132,43.5431394827552],[-116.156078000338,43.5432628919404],[-116.156185827541,43.5433829584035],[-116.156300832785,43.5434994469613],[-116.156117179122,43.5435822925177],[-116.155937462501,43.5436695867964],[-116.155761885872,43.5437612310304],[-116.155590648385,43.5438571216664],[-116.155423944448,43.5439571503683],[-116.155261962786,43.5440612040204],[-116.15514566101,43.5441675266394],[-116.155037216332,43.5442781567469],[-116.154936929339,43.5443927867609],[-116.154845078868,43.5445110982033],[-116.154761919196,43.5446327637672],[-116.153682062141,43.5462181956355],[-116.153640596158,43.5462835766421],[-116.153604878788,43.5463507292584],[-116.153575053453,43.5464193862187],[-116.153551239026,43.5464892741714],[-116.15353637406,43.5465468024355],[-116.153525583246,43.5466048093869],[-116.153517784171,43.5466791099713],[-116.153516666205,43.546753622194],[-116.153520257856,43.5472920408112],[-116.153523035558,43.5473469070417],[-116.153530624692,43.5474015327288],[-116.153542994547,43.5474556937333],[-116.153640728423,43.5478300468085],[-116.153656312987,43.5479030681613],[-116.153666912297,43.5479765610921],[-116.153672500618,43.5480503453357],[-116.153672325671,43.5481631469409],[-116.153662412677,43.5482757182179],[-116.153642801045,43.5483876146461],[-116.153613567911,43.5484983943121],[-116.153517764659,43.5487489638664],[-116.153376434992,43.5490511301545],[-116.153266526073,43.5492517901969],[-116.153212615763,43.5493502450269],[-116.153150729079,43.5494461864915],[-116.153081085283,43.5495392729772],[-116.153003933877,43.5496291730493],[-116.152919548965,43.5497155668437],[-116.152828231132,43.5497981467463],[-116.152730303688,43.5498766180921],[-116.152626117404,43.5499507032638],[-116.152516041996,43.5500201369213],[-116.152400469936,43.5500846721607],[-116.151742356054,43.55038537401],[-116.151902043951,43.5505707689327],[-116.152039084635,43.5507876878769],[-116.152126273331,43.5509953855767],[-116.152173786101,43.5512097821622],[-116.152175485242,43.5512480812372],[-116.152182789527,43.5514126855886],[-116.152182303587,43.551596109491],[-116.152181830682,43.551774403783],[-116.152181357782,43.5519526987552],[-116.152180885807,43.5521309909755],[-116.152180414777,43.5523092831869],[-116.152179814412,43.5525360433137],[-116.152178868491,43.5528938895356],[-116.152177993166,43.5532246352397],[-116.152467026731,43.5532245645224],[-116.152730846296,43.5532244989146],[-116.152994665861,43.5532244333838],[-116.153372685994,43.5532251569456],[-116.1534971876,43.5532262098607],[-116.155303782332,43.5532414722954],[-116.156639657436,43.5532527792877],[-116.158393063256,43.5532676718547],[-116.158390124157,43.5548657195457],[-116.158388689244,43.5556249036702],[-116.158386295611,43.5569155300716],[-116.163404595649,43.5569675076998],[-116.163477065497,43.55707712575],[-116.163615399996,43.5572738114524],[-116.163764186666,43.5574664206598],[-116.163923198193,43.5576546592741],[-116.164006462951,43.5577470497756],[-116.164180351813,43.5579281974721],[-116.164363831881,43.5581042704206],[-116.164459082128,43.5581903204142],[-116.164656418991,43.5583582814365],[-116.164758431625,43.5584401289454],[-116.164862621268,43.5585205132608],[-116.164968949043,43.5585994029722],[-116.165077375141,43.5586767680447],[-116.165187855981,43.5587525791424],[-116.165300351762,43.5588268076017],[-116.165414817963,43.5588994247762],[-116.1655312129,43.5589704026951],[-116.165552637822,43.5589831994514],[-116.16604108105,43.5592737663847],[-116.165552136366,43.5597065990149],[-116.166193345595,43.5600896646202],[-116.166342456789,43.5601787434739],[-116.166333088991,43.5605901435372],[-116.166322606281,43.5607000898679],[-116.166191276021,43.5606953712626],[-116.166063758381,43.5606907888153],[-116.165902961615,43.560686454844],[-116.1657363718,43.5606819640977],[-116.163412187085,43.5606459588219],[-116.160662439681,43.5606106950307],[-116.158528343215,43.5605919274787],[-116.155661224127,43.5605484859429],[-116.153452411142,43.5605149224994],[-116.153345894723,43.56051330274],[-116.153132824846,43.560520911917],[-116.152981893627,43.5605180350482],[-116.152821591471,43.5605149797803],[-116.15263744527,43.5605180114819],[-116.152490104536,43.5605204373991],[-116.152278476289,43.5605239211812],[-116.151982793511,43.5605238447432],[-116.150731939065,43.5605235136605],[-116.149035726621,43.5605028981786],[-116.147054317946,43.5604728520762],[-116.145135745183,43.5604754528743],[-116.140367035541,43.5604837766651],[-116.137973071419,43.5604952219618],[-116.136199983292,43.5605016502333],[-116.135064440367,43.5605034861483],[-116.134162135307,43.5604933108853],[-116.133800200102,43.560490057978],[-116.133590483857,43.5604899155489],[-116.133307005886,43.5604897217439],[-116.13302817909,43.5605083222953],[-116.132890353845,43.5605264377],[-116.132620212412,43.5605799899271],[-116.132418613456,43.5606386139516],[-116.132230399911,43.5607173297888],[-116.132142500641,43.5607637456922],[-116.132042610881,43.5608228622604],[-116.131948268757,43.5608866158926],[-116.131859878027,43.5609547316322],[-116.13177782159,43.5610269160766],[-116.131702451132,43.5611028594693],[-116.131573039507,43.561264696745],[-116.131473870132,43.5614374601305],[-116.131403561159,43.5615996911218],[-116.131323582187,43.5617842349452],[-116.131251700605,43.5619500912519],[-116.131206481754,43.5620544295056],[-116.131152824206,43.5621884965161],[-116.131125455385,43.5623312146175],[-116.131130752369,43.5624752618761],[-116.131168570878,43.5626167127425],[-116.131237879635,43.5627517097459],[-116.131336789334,43.5628765744961],[-116.131515555389,43.5630174796005],[-116.131717922434,43.5631403522048],[-116.131876658624,43.5632213709766],[-116.132056092271,43.5633129532061],[-116.132218765179,43.5633959799905],[-116.132347705856,43.5634617892983],[-116.132673887244,43.5636282669225],[-116.132815892428,43.5637109416509],[-116.132881094782,43.5637571059533],[-116.133014451184,43.5638655970359],[-116.133081295878,43.5639283040007],[-116.133142303731,43.5639940814702],[-116.133197209808,43.5640626436905],[-116.133245774542,43.5641336911066],[-116.133287784704,43.5642069137883],[-116.133310376753,43.5642909317769],[-116.133324046281,43.5643759623815],[-116.133328712742,43.5644615045787],[-116.133324348393,43.5645470557944],[-116.133310979229,43.5646321112147],[-116.133288683149,43.5647161713361],[-116.133257592789,43.5647987419555],[-116.133217888929,43.56487933625],[-116.133113628338,43.5650327155696],[-116.133049685441,43.565104597416],[-116.132978352987,43.5651727041368],[-116.132887733115,43.5652458389983],[-116.132791151296,43.5653113028567],[-116.132556241128,43.5654352119714],[-116.132222073495,43.5656114734894],[-116.131087471866,43.5662099215366],[-116.130964845536,43.5662755179698],[-116.130898882736,43.56632005895],[-116.130703719388,43.5663891493406],[-116.130566264542,43.5664367295285],[-116.130424945731,43.5664778899022],[-116.130280327817,43.5665124653558],[-116.130132989981,43.5665403174833],[-116.129983524784,43.5665613352676],[-116.129832529666,43.566575433052],[-116.129600999914,43.5665761848743],[-116.129376435326,43.5665757870843],[-116.12920610196,43.5665696412411],[-116.125039664879,43.5664192211456],[-116.124750479815,43.566430752864],[-116.12460679771,43.5664441120635],[-116.124464168991,43.566462495685],[-116.124322926273,43.5664858608116],[-116.124110108402,43.5660128986234],[-116.124089474208,43.5659694383697],[-116.124061651071,43.5659281522021],[-116.12402706066,43.5658896648425],[-116.123986228126,43.565854560213],[-116.123857896531,43.5657775607998],[-116.124009152364,43.5656511315984],[-116.124089669024,43.5655737432383],[-116.124131833687,43.5655315368077],[-116.124145032781,43.565504806939],[-116.124152029208,43.5654768650416],[-116.124152636216,43.5654484681305],[-116.124146834978,43.5654203822705],[-116.124134784868,43.5653933667704],[-116.124116809183,43.5653681529712],[-116.124093395942,43.5653454209268],[-116.124093617213,43.5653107690125],[-116.124095860914,43.5648765996373],[-116.124102148915,43.564680695479],[-116.123305992818,43.5642481269778],[-116.123007986302,43.5640280003119],[-116.122938491882,43.5639765063564],[-116.12281564224,43.5638854769268],[-116.122968416638,43.5636566177154],[-116.12309150453,43.5634747048239],[-116.122657380404,43.5632434338882],[-116.12261977931,43.563185197531],[-116.122594919885,43.563065908858],[-116.122221352789,43.5630650128233],[-116.121949312834,43.5626154660977],[-116.121909937786,43.562603950522],[-116.121312765858,43.5627655700238],[-116.120759255167,43.5628555781261],[-116.120437917842,43.5628840148178],[-116.120150072229,43.5629162407753],[-116.119781279713,43.5629592722238],[-116.119531957436,43.5630009810123],[-116.119220548701,43.5630597747727],[-116.11911263376,43.5630601369392],[-116.118908797254,43.5632456430934],[-116.118502961763,43.5636159488883],[-116.118382828308,43.5637690374967],[-116.118305788006,43.5638167751759],[-116.11823064516,43.5638663925553],[-116.118157399768,43.5639178896384],[-116.11808699383,43.5639710919539],[-116.118019428393,43.5640261709459],[-116.117954702414,43.5640829551805],[-116.117892814853,43.5641412732238],[-116.117833765713,43.5642011250801],[-116.117776611946,43.5642625137877],[-116.117723238617,43.5643252618439],[-116.117673645734,43.5643893692543],[-116.117603514034,43.5644878311075],[-116.117561483062,43.5645548286696],[-116.1175099804,43.5646462899076],[-116.117492242981,43.5646448869214],[-116.117462051585,43.5646427552142],[-116.117431877905,43.5646435379582],[-116.117400782004,43.5646477525002],[-116.117373472916,43.5646543550554],[-116.117349946472,43.5646626598715],[-116.11732737558,43.5646730189181],[-116.117283243491,43.5647047060501],[-116.117266385084,43.5647239617234],[-116.117254246129,43.5647438880029],[-116.11724403182,43.5647701514571],[-116.117240383514,43.5647905647878],[-116.117241476543,43.5648152489417],[-116.117245364388,43.5648342665283],[-116.117253020313,43.5648525862424],[-116.117265401965,43.5648726051966],[-116.117083814812,43.5649429653091],[-116.117059356604,43.5649531589199],[-116.117034901509,43.5649638668419],[-116.116986949969,43.5649878512245],[-116.116956873931,43.5650047490881],[-116.116887367118,43.5650510900854],[-116.116859208362,43.5650731250338],[-116.116834820803,43.565094976433],[-116.116261758494,43.5656167975921],[-116.116235503049,43.5656417408031],[-116.116179270684,43.5657000397884],[-116.116008788507,43.5658917436143],[-116.115979734743,43.5659218389862],[-116.115871113172,43.5660250710924],[-116.115861734256,43.5660336732099],[-116.115759316474,43.5661106430593],[-116.115649401399,43.5661824132968],[-116.117194365758,43.5670742621578],[-116.118518689349,43.5678319656683],[-116.120786596525,43.5691340103514],[-116.121800533777,43.5697156398062],[-116.122188916187,43.5699384233328],[-116.122558379987,43.5701580330999],[-116.122946182219,43.5703664292031],[-116.123003922805,43.5703959249803],[-116.123475482358,43.5706368147112],[-116.124127972986,43.5709848590608],[-116.124204455519,43.5710166203912],[-116.124314682021,43.5710552152806],[-116.124428346195,43.5710881206486],[-116.124544892437,43.5711151771498],[-116.124663752108,43.5711362529144],[-116.124784344472,43.571151243545],[-116.124906082396,43.5711600775842],[-116.125028371366,43.5711627110321],[-116.125150615181,43.5711591314424],[-116.125272216876,43.5711493558614],[-116.125392583454,43.5711334321846],[-116.125465528997,43.5713381260852],[-116.12548532386,43.5713878238048],[-116.125513753657,43.5714352554995],[-116.125550343797,43.5714796320319],[-116.125594485121,43.5715202147664],[-116.125645445302,43.571556328562],[-116.125702374566,43.5715873720409],[-116.126740213855,43.5719348743928],[-116.127526330845,43.5722045947443],[-116.128545795162,43.5725618998062],[-116.128918881751,43.5726926597345],[-116.12955062349,43.5729140866833],[-116.130567623977,43.5732867341171],[-116.131593531232,43.5736463351123],[-116.133634204499,43.5743612744585],[-116.134663098365,43.5747055589124],[-116.135658247487,43.5750936155115],[-116.136678614455,43.5754565579156],[-116.13735669433,43.5756561043412],[-116.137402288528,43.5756725022136],[-116.137444044772,43.5756936236082],[-116.13748104231,43.5757190039568],[-116.137512468256,43.5757480850616],[-116.137537630867,43.5757802260225],[-116.137543037949,43.5758041114765],[-116.137554037509,43.5758269582371],[-116.137570299736,43.5758480809679],[-116.137591335732,43.5758668449322],[-116.137616511784,43.5758826851466],[-116.137645073069,43.5758951261881],[-116.137676160711,43.5759037937947],[-116.137708840164,43.5759084284848],[-116.137742128594,43.5759088895792],[-116.13784882688,43.5759179267862],[-116.137954494318,43.5759319741769],[-116.138058686292,43.5759509742873],[-116.138160964639,43.5759748463168],[-116.138260897666,43.5760034895573],[-116.138358066767,43.5760367847418],[-116.138719600407,43.5761676567571],[-116.139100044812,43.5762892541017],[-116.139166772077,43.5763068713276],[-116.139230610991,43.5763294468426],[-116.139290867629,43.5763567347666],[-116.139346885468,43.5763884383467],[-116.139398056712,43.5764242119753],[-116.139443823276,43.5764636666727],[-116.139483686234,43.5765063727976],[-116.139494119795,43.5765368353673],[-116.139511046022,43.5765657163816],[-116.139534039542,43.5765922890026],[-116.139562521607,43.5766158852043],[-116.13959577528,43.5766359108085],[-116.139632966306,43.576651863244],[-116.139673158259,43.5766633410963],[-116.139715339975,43.5766700549864],[-116.139758451077,43.5766718370855],[-116.139801408396,43.5766686423961],[-116.139952873358,43.5766821504946],[-116.14012011754,43.5767057758454],[-116.140399191848,43.576754999416],[-116.140544063071,43.5767898593413],[-116.140686390807,43.5768298771984],[-116.141245129174,43.5770389803922],[-116.144270447597,43.5780977066982],[-116.144374828927,43.5781301009579],[-116.144480901593,43.578159447225],[-116.14458849738,43.5781857001289],[-116.144732997391,43.5782161225343],[-116.144879199028,43.5782418934956],[-116.145026817998,43.5782629625562],[-116.145175570077,43.5782792895471],[-116.145325165427,43.5782908418635],[-116.145452607827,43.5782953530393],[-116.145580182825,43.5782969175604],[-116.145774207269,43.5782936435737],[-116.145967786132,43.5782835542798],[-116.146160468626,43.5782666752446],[-116.146351803099,43.5782430443841],[-116.146541342736,43.5782127174304],[-116.146697768871,43.5781819358793],[-116.146852029027,43.5781458352824],[-116.147003780343,43.5781044963878],[-116.147152687576,43.5780580108911],[-116.147786864155,43.5784970688884],[-116.147612233042,43.5785302701664],[-116.147519846799,43.5785480263662],[-116.147435588958,43.5785642201747],[-116.147265682611,43.5786267196526],[-116.147010776442,43.5787133259542],[-116.146769063564,43.5788141731629],[-116.146605769391,43.5788861733233],[-116.146529646511,43.5789195743018],[-116.146319755325,43.5790116695239],[-116.146028784049,43.5791309903915],[-116.145733105863,43.5792440321573],[-116.145414172916,43.579357759806],[-116.145309605449,43.5793934946301],[-116.145202143056,43.5794243573932],[-116.145089332541,43.5794508304294],[-116.145012486778,43.5794649415931],[-116.144974400237,43.5794719349603],[-116.144839462208,43.579500694419],[-116.144703206053,43.5795259581163],[-116.144565803265,43.5795476939106],[-116.144441601679,43.5795641803979],[-116.144316740703,43.5795777840045],[-116.143889274541,43.5796172908455],[-116.143672414636,43.5796373318261],[-116.141557616006,43.5798323366476],[-116.14019242226,43.579938985849],[-116.139011191977,43.5800426873916],[-116.138518929622,43.580063628608],[-116.138310916103,43.5800872728326],[-116.135144673374,43.5803415433732],[-116.132111041647,43.5805648741328],[-116.131904141278,43.5805780004649],[-116.131747245355,43.5805888589618],[-116.131617985208,43.5805978042899],[-116.131159623914,43.5806295646884],[-116.130349324385,43.5806856385711],[-116.130276798441,43.5806872595934],[-116.130204583714,43.5806821226773],[-116.130133866518,43.580670311657],[-116.130003070955,43.5806282282635],[-116.129890963864,43.5805636525711],[-116.129772533374,43.5804755787242],[-116.129665650199,43.5803955742245],[-116.129595723234,43.5803497160517],[-116.129520743496,43.5803082909457],[-116.129441242023,43.5802715920137],[-116.129357779817,43.5802398779763],[-116.128478000473,43.5799503000036],[-116.128316312556,43.5798956192837],[-116.128152107553,43.5798450598883],[-116.127985582966,43.579798682187],[-116.127816940986,43.57975654242],[-116.127709785527,43.5797322582624],[-116.127605663851,43.5797017865983],[-116.127505250748,43.5796653261374],[-116.12740919671,43.5796231120171],[-116.127318124164,43.5795754185581],[-116.127232623676,43.5795225544759],[-116.127153249226,43.5794648622101],[-116.127080514421,43.5794027158796],[-116.127014890596,43.5793365185448],[-116.126956803953,43.5792666981025],[-116.126906629905,43.5791937073041],[-116.126864693053,43.5791180196405],[-116.126831266205,43.5790401245444],[-116.126806565671,43.5789605274065],[-116.126724487115,43.5786405057352],[-116.126693236815,43.5785595716452],[-116.126653954816,43.5784805094048],[-116.126606852225,43.5784037379996],[-116.126552176876,43.578329667378],[-116.126505731554,43.5782753800581],[-116.126055486656,43.5778099273976],[-116.125949873191,43.577708366354],[-116.12583799558,43.5776104144218],[-116.125720089031,43.5775162751685],[-116.125590060324,43.5774144689676],[-116.125201342928,43.5771323308767],[-116.125067884863,43.5770441388882],[-116.125013340838,43.5770116999942],[-116.124946420726,43.5769718898933],[-116.12452663687,43.5767137558312],[-116.124158948657,43.5764843410997],[-116.124113585252,43.5764564430503],[-116.124073262547,43.5764247156252],[-116.124038587191,43.5763896375678],[-116.124010082178,43.5763517358986],[-116.123988176441,43.5763115811486],[-116.123973199142,43.576269779149],[-116.123965712605,43.5751278477502],[-116.123954650421,43.5746054945727],[-116.123860274124,43.5746060535328],[-116.123760503674,43.5746054230992],[-116.120464433003,43.574584550212],[-116.120293164776,43.574583462641],[-116.120306332499,43.574550710264],[-116.120008933037,43.5744389076295],[-116.119814784081,43.5743502214687],[-116.119793342032,43.5743558270241],[-116.1197405762,43.5743674246229],[-116.119686013254,43.5743731228661],[-116.119636053982,43.5743730807278],[-116.119586568117,43.5743680878547],[-116.118475256874,43.5741361797185],[-116.118423631367,43.5741231814178],[-116.118373216134,43.5741078777589],[-116.118330065626,43.5740925726179],[-116.118288129148,43.5740755779337],[-116.118036440045,43.5739455783032],[-116.117463002556,43.5736420848968],[-116.117425042635,43.5736153728188],[-116.117393783922,43.5735844100662],[-116.117364490978,43.5735537701569],[-116.117354693265,43.5735133372465],[-116.117238243214,43.5734011398921],[-116.117188577281,43.5733517534031],[-116.116478763122,43.5733628114724],[-116.116324461821,43.5730423688639],[-116.116333530248,43.5724775889994],[-116.116303597451,43.5723654775616],[-116.11597990244,43.572647507458],[-116.115947736938,43.5726597375321],[-116.115913180712,43.572667811954],[-116.11587723874,43.5726714950304],[-116.115001935685,43.5726694924701],[-116.114953518326,43.572663869444],[-116.114906865497,43.5726529006936],[-116.114863087992,43.5726368473825],[-116.114831626716,43.5726170262352],[-116.114803667876,43.5725946003307],[-116.11477961713,43.572569896174],[-116.114759314318,43.5725424753875],[-116.114743562234,43.5725128291646],[-116.114728028316,43.5724504066687],[-116.114724627553,43.5724067121795],[-116.114726350349,43.5723325587509],[-116.114737469969,43.5722588368651],[-116.114757890188,43.5721861743038],[-116.114680345151,43.572120308197],[-116.114179865051,43.5719853356312],[-116.114108476709,43.5718680526102],[-116.11338509351,43.5714519158318],[-116.113323879179,43.5714164724049],[-116.113267749823,43.5713768275479],[-116.113217249136,43.5713333649424],[-116.113172865386,43.5712865061634],[-116.112688213404,43.5707469307124],[-116.112648950963,43.5707008564551],[-116.112603444797,43.5706579263446],[-116.112552167278,43.5706185853104],[-116.112495649979,43.5705832424342],[-116.112421698604,43.5705388306563],[-116.112310798038,43.5704766778493],[-116.112190822448,43.5704113593773],[-116.112066107677,43.5703509158235],[-116.111937028284,43.5702955277154],[-116.111803972881,43.5702453611358],[-116.111667338476,43.5702005670557],[-116.111527536121,43.5701612799446],[-116.111384985244,43.5701276164172],[-116.111240113673,43.5700996786625],[-116.111168062087,43.5700825213964],[-116.111046455837,43.570048138429],[-116.110928387555,43.5700077594667],[-116.110826582093,43.5699668675356],[-116.110728414326,43.5699215161456],[-116.110634254066,43.5698718769529],[-116.110067327947,43.5694854725596],[-116.110023546914,43.5694519159128],[-116.109984790361,43.5694152369],[-116.109951479403,43.5693758319458],[-116.10992397025,43.5693341264812],[-116.109849566065,43.5692129228436],[-116.109821700513,43.569155843557],[-116.10980269027,43.5690968731634],[-116.10979276975,43.5690367357864],[-116.109792059327,43.5689761696216],[-116.109800569056,43.5689159180099],[-116.109818192966,43.5688567205409],[-116.109844715605,43.5687993041168],[-116.109879811995,43.5687443740382],[-116.109923050396,43.568692603709],[-116.109973898882,43.5686446298162],[-116.110029504294,43.5686051759897],[-116.110003305225,43.5685474372706],[-116.109516299646,43.5682259009615],[-116.109839568486,43.5677246209271],[-116.109085973235,43.5674670635903],[-116.109356066032,43.5673672977061],[-116.109539446281,43.5670885845549],[-116.109560129195,43.5670062060643],[-116.109515664047,43.5669857173014],[-116.10948501564,43.566961599882],[-116.109463848314,43.5669341438135],[-116.109452863742,43.5669079497715],[-116.109449309004,43.5668779483003],[-116.109456292516,43.566844128256],[-116.109466020331,43.5668247171744],[-116.109494117743,43.5667795663116],[-116.109719574263,43.5664171973834],[-116.109256606729,43.5662649024664],[-116.109210001979,43.5662468931856],[-116.1091758168,43.5662298104312],[-116.109142774665,43.5662093919277],[-116.10910678048,43.5661813247118],[-116.109078102797,43.5661526056561],[-116.108190119256,43.565142953505],[-116.108168181064,43.5651110894255],[-116.10815017497,43.5650721228639],[-116.108141667449,43.5650398127876],[-116.10813870516,43.5649960240917],[-116.10814309679,43.5649619070684],[-116.108153830542,43.5649271378987],[-116.108043005972,43.564906859158],[-116.107554429111,43.5648295357636],[-116.107264432613,43.5646285219011],[-116.106787693067,43.5644708842266],[-116.106672067787,43.5644367199792],[-116.106634842471,43.5644572850359],[-116.106593289179,43.5644728622693],[-116.106548658505,43.5644829841952],[-116.106506320494,43.5644871999736],[-116.106463598879,43.5644864972289],[-116.106421566043,43.5644808925046],[-116.106381280959,43.5644705271978],[-116.1063437552,43.5644556614926],[-116.106309932165,43.5644366696243],[-116.106118756205,43.5643105201461],[-116.105944371111,43.5641993700062],[-116.105841114722,43.564137090356],[-116.105736168978,43.5640763225018],[-116.10562958875,43.5640170964421],[-116.105521403374,43.5639594299112],[-116.105411655416,43.5639033454025],[-116.105300390272,43.5638488654011],[-116.105187630638,43.5637960014899],[-116.105073441764,43.5637447850074],[-116.104371280777,43.5634453364186],[-116.104284756094,43.5634055714535],[-116.104202145232,43.5633616255096],[-116.104123831316,43.5633136997104],[-116.104073771533,43.5632786707041],[-116.104042818728,43.563233444105],[-116.104034575034,43.5631832823354],[-116.104048499973,43.563136711179],[-116.104105166252,43.5630787692721],[-116.10420511807,43.5630135173589],[-116.104301136249,43.5629452142187],[-116.104393046111,43.5628739845271],[-116.104438744369,43.5628361838753],[-116.104674224346,43.5626370010517],[-116.104704364573,43.5626152276534],[-116.104738833448,43.5625971672839],[-116.104817246662,43.5625738711577],[-116.104859246086,43.5625692147338],[-116.104868453095,43.5624823074806],[-116.104907343239,43.562322947819],[-116.105206195249,43.5620559791401],[-116.105301015781,43.5619799433978],[-116.105187725806,43.5619145452617],[-116.104993498951,43.5617938284384],[-116.104805417313,43.5616680716979],[-116.103548989999,43.5607871649057],[-116.103167620953,43.5610759640145],[-116.102974881972,43.561221229041],[-116.102932058155,43.5612535039196],[-116.102752462574,43.5613888570355],[-116.102689469274,43.5614321581244],[-116.102621274006,43.5614710691571],[-116.102548452941,43.5615052626075],[-116.102471622084,43.5615344492304],[-116.102391430695,43.5615583815116],[-116.102308555654,43.5615768577994],[-116.102188202728,43.5615974409541],[-116.102066788541,43.5616144146194],[-116.101968412463,43.5616234459797],[-116.101869326383,43.5616261799672],[-116.101770292178,43.5616225957203],[-116.101672069179,43.5616127210773],[-116.101575411337,43.5615966318994],[-116.101481062501,43.5615744507138],[-116.101389745111,43.5615463494909],[-116.101302162045,43.5615125420955],[-116.10121898439,43.5614732898097],[-116.101140851389,43.5614288931039],[-116.101068361963,43.5613796923479],[-116.101002074699,43.5613260664393],[-116.100961897455,43.5612859941172],[-116.100928409823,43.5612427919714],[-116.100902068802,43.5611970483662],[-116.10088323162,43.5611493848886],[-116.100872154759,43.5611004508639],[-116.100868988226,43.56105091103],[-116.100872387154,43.5608437736756],[-116.100874705619,43.560702491286],[-116.099645742914,43.5606916679216],[-116.099560679203,43.5606906861028],[-116.099469657548,43.5606867708822],[-116.099379439438,43.5606771585076],[-116.099290699556,43.5606619189254],[-116.099204098703,43.5606411673873],[-116.09913902624,43.5606214431589],[-116.099075908616,43.560598603648],[-116.09885344046,43.5604889300876],[-116.098797284631,43.5604577953762],[-116.098746231906,43.5604223185542],[-116.098700911917,43.5603829379715],[-116.098661887618,43.5603401408715],[-116.098629639218,43.5602944565816],[-116.098604567916,43.5602464510152],[-116.098586982653,43.5601967171111],[-116.098577101024,43.5601458707156],[-116.098575045455,43.5600945409936],[-116.098576930897,43.5598574264582],[-116.098573214522,43.5598132605411],[-116.098561041291,43.5597699062976],[-116.098540651888,43.559728216774],[-116.098512445215,43.5596890095582],[-116.098476977382,43.5596530558113],[-116.098434943692,43.5596210631788],[-116.098361278588,43.559581128328],[-116.098257670393,43.5595364081366],[-116.098149377135,43.5594980036503],[-116.098037126372,43.5594661711763],[-116.097921669927,43.5594411244325],[-116.097814932158,43.5594183120296],[-116.097721083412,43.5593905968526],[-116.097631315958,43.559356472334],[-116.097546456739,43.5593162521092],[-116.097467284918,43.5592703055079],[-116.097394528097,43.5592190555078],[-116.097328856622,43.5591629732655],[-116.097270873194,43.559102574718],[-116.09722111189,43.5590384144138],[-116.097180029663,43.5589710834806],[-116.097148004407,43.5589012000299],[-116.097125330229,43.5588294077993],[-116.097067473211,43.5585952746006],[-116.097041589507,43.5585075747011],[-116.097007665941,43.5584213365689],[-116.096965855661,43.5583369506207],[-116.096916345699,43.5582547968823],[-116.096859361694,43.5581752463463],[-116.096814680875,43.5581119811429],[-116.096776997593,43.5580463507377],[-116.096746548974,43.5579787638228],[-116.096723524115,43.5579096408928],[-116.096700793377,43.5578273365779],[-116.096689673168,43.5577870827186],[-116.096658560841,43.5576744118806],[-116.096656119864,43.557619044088],[-116.096678443638,43.5575660795763],[-116.096719771165,43.5575236779419],[-116.096772688526,43.5574940869733],[-116.096834994009,43.5574766652815],[-116.097006905065,43.5574515485253],[-116.097180250176,43.5574323357453],[-116.097354644907,43.5574190692491],[-116.097529704746,43.5574117783174],[-116.097705042281,43.557410479212],[-116.097880270024,43.5574151751682],[-116.09793250952,43.5573329508636],[-116.098017868706,43.5573510354006],[-116.098095713745,43.5573822718074],[-116.098466015754,43.5571494970365],[-116.098595909643,43.5570806832183],[-116.098556250111,43.5570082737247],[-116.098519137279,43.5569351542254],[-116.09848459498,43.5568613712825],[-116.098452644233,43.5567869735238],[-116.098423306988,43.5567120082027],[-116.098396601436,43.5566365246413],[-116.096691992137,43.5566254686333],[-116.096694502885,43.5565461360009],[-116.096705013927,43.5562140750812],[-116.096705258616,43.5562062620522],[-116.096227554785,43.5560276464566],[-116.096161055879,43.5559108884353],[-116.096156599918,43.5557249753798],[-116.09615617853,43.5555851386242],[-116.096158186924,43.5554139754077],[-116.096159228025,43.5553252048567],[-116.095932060541,43.5553238289364],[-116.095616773796,43.555323192157],[-116.095396194208,43.5553238957696],[-116.095071009858,43.5553216655399],[-116.095042779884,43.555319923848],[-116.095015226483,43.5553151277467],[-116.09498897073,43.555307386457],[-116.094964604833,43.5552968730641],[-116.094942677993,43.5552838252461],[-116.094921811626,43.5552667514996],[-116.094905128303,43.5552473972899],[-116.094893089342,43.5552262988707],[-116.094886029982,43.5552040401938],[-116.09488414421,43.5551812385534],[-116.094906103689,43.5544947257075],[-116.094912762315,43.5542865333393],[-116.094918026912,43.5541245681129],[-116.094927847215,43.5538175446974],[-116.094930920017,43.5537958644133],[-116.09493867415,43.5537748105148],[-116.094950914642,43.5537549164323],[-116.094967333183,43.5537366823351],[-116.094987514699,43.5537205703112],[-116.095009804269,43.5537075509166],[-116.094951700523,43.5536670484234],[-116.094872268768,43.5536183508235],[-116.094874664055,43.5533229283214],[-116.094598820418,43.5533217349692],[-116.094600958083,43.5530602958783],[-116.09460376327,43.5529941167935],[-116.096234509706,43.5530179656134],[-116.09672319655,43.5530251075458],[-116.09852744287,43.5530500685962],[-116.09853000961,43.5529689465301],[-116.098565297162,43.5518538002097],[-116.098592143123,43.5506990741112],[-116.098592236722,43.5505271820861],[-116.098584537226,43.5503553817073],[-116.098569053317,43.5501838594764],[-116.098545801222,43.5500128018701],[-116.098514806592,43.5498423946493],[-116.098476102616,43.5496728235505],[-116.098429732848,43.5495042729052],[-116.098189233473,43.5493934423892],[-116.098061999931,43.549343414012],[-116.097910309439,43.5493286330803],[-116.097007386634,43.5493113141632],[-116.095812322907,43.546752038967],[-116.095760572187,43.546669960598],[-116.0957237728,43.5466334736661],[-116.095680543503,43.5466009301429],[-116.095631674932,43.5465729249372],[-116.0954183477,43.5464309011954],[-116.094369489088,43.5456961922051],[-116.094509641278,43.545698557645],[-116.095318036867,43.5457158327955],[-116.095654148271,43.5457230134919],[-116.095882039742,43.545727881791],[-116.096462738699,43.5457402847597],[-116.096664237926,43.5457451279207],[-116.096628902104,43.5456718459169],[-116.096124537168,43.5446286458131],[-116.096018892872,43.5444545829369],[-116.095904371396,43.5442835175746],[-116.09578113254,43.5441156871793],[-116.095649350232,43.543951328474],[-116.095509207779,43.5437906706087],[-116.095360901654,43.5436339385782],[-116.095204639606,43.5434813518564],[-116.095040640652,43.5433331237106],[-116.094869134143,43.5431894618905],[-116.094830912476,43.5431457810841],[-116.094801197798,43.5430987294185],[-116.094780539967,43.5430491789146],[-116.094769322227,43.5429980466692],[-116.094767751703,43.5429462804819],[-116.09477585834,43.5428948382852],[-116.094793491051,43.5428446730689],[-116.094820323264,43.5427967136619],[-116.094855858491,43.5427518489432],[-116.094899438707,43.5427109086157],[-116.094950256536,43.5426746515117],[-116.095007370249,43.5426437497761],[-116.095385426681,43.5424499813928],[-116.095036996147,43.5420951935645],[-116.094930149533,43.5419792653777],[-116.09483129353,43.5418596447986],[-116.094740669215,43.5417366225736],[-116.094658496976,43.5416104991113],[-116.094584975542,43.5414815803708],[-116.094520285773,43.5413501805925],[-116.094476996575,43.541246397461],[-116.094636893034,43.5383536109834],[-116.094639043304,43.5311166536299],[-116.094637470276,43.5305325103873],[-116.094645180692,43.5169755848631],[-116.094646315929,43.5166682386544],[-116.099610461756,43.5166602751556],[-116.099605590515,43.5130416306843],[-116.109538997062,43.5130368863361],[-116.109542567081,43.5166558833295],[-116.114508638364,43.5166544799111],[-116.119469002905,43.5166441801893],[-116.119464980503,43.5130288040072],[-116.114506363064,43.5130361079062],[-116.114496710738,43.5021822188168],[-116.124404769173,43.5021732696052],[-116.124414217192,43.5057879255088],[-116.134319719559,43.5057641649291],[-116.134332252441,43.5166292448935],[-116.139314582644,43.5166681082055],[-116.139309591596,43.5139862333331],[-116.139308155592,43.513029925649],[-116.139307336805,43.5126093771595],[-116.139305598723,43.5112825132492],[-116.139304551653,43.5104551082106],[-116.13930344383,43.5098297716565],[-116.139606957107,43.510016677228],[-116.140134673557,43.5103804438879],[-116.141947441119,43.5113745593207],[-116.142023647198,43.5114175094215],[-116.142111740353,43.5114697082118],[-116.142154376777,43.5114960047775],[-116.142193744978,43.5115209080708],[-116.142237935693,43.5115496022285],[-116.142277731932,43.5115761347965],[-116.142349758537,43.5116258991594],[-116.141355857869,43.5094068447584],[-116.145934446916,43.5093961867497],[-116.145939047394,43.5092867293595]]]},"properties":{"AREA_NAME":"IR2","ACRES":14714.44515501}}]}